[Satellite]
VERSION=1.1
NAME=BEESAT
NICKNAME=BEESAT
TLE1=1 35933U 09051C   17186.19441520  .00000087  00000-0  30498-4 0  9990
TLE2=2 35933  98.5017 326.3451 0005471 197.1921 162.9091 14.56140400413041
